start=new Date('2021-12-28T00:00:00.000Z').valueOf();
sats=[{"BSTAR":"0.00015598000000","TIME_SYSTEM":"UTC","RCS_SIZE":"LARGE","ECCENTRICITY":"0.00018020","MEAN_MOTION_DDOT":"0.0000000000000","ARG_OF_PERICENTER":"55.6053","NORAD_CAT_ID":"45080","SEMIMAJOR_AXIS":"6925.341","MEAN_ANOMALY":"304.5106","PERIAPSIS":"545.958","OBJECT_TYPE":"PAYLOAD","EPOCH":"2021-12-27T13:43:12.190368","RA_OF_ASC_NODE":"309.0531","TLE_LINE1":"1 45080U 20006AN  21361.57166887  .00002043  00000-0  15598-3 0  9996","REV_AT_EPOCH":"10566","EPHEMERIS_TYPE":"0","APOAPSIS":"548.454","COUNTRY_CODE":"US","CENTER_NAME":"EARTH","INCLINATION":"53.0541","OBJECT_NAME":"STARLINK-1153","MEAN_MOTION":"15.06402510","OBJECT_ID":"2020-006AN","FILE":"3253114","MEAN_ELEMENT_THEORY":"SGP4","DECAY_DATE":null,"REF_FRAME":"TEME","ELEMENT_SET_NO":"999","SITE":"AFETR","CLASSIFICATION_TYPE":"U","PERIOD":"95.592","TLE_LINE2":"2 45080  53.0541 309.0531 0001802  55.6053 304.5106 15.06402510105664","MEAN_MOTION_DOT":"0.00002043","LAUNCH_DATE":"2020-01-29","GP_ID":"192601986"},{"EPHEMERIS_TYPE":"0","APOAPSIS":"548.464","INCLINATION":"53.0562","CENTER_NAME":"EARTH","COUNTRY_CODE":"US","RA_OF_ASC_NODE":"307.6755","TLE_LINE1":"1 45081U 20006AP  21361.88129081  .00000754  00000-0  69541-4 0  9991","REV_AT_EPOCH":"10571","MEAN_MOTION":"15.06393835","OBJECT_ID":"2020-006AP","OBJECT_NAME":"STARLINK-1151","ARG_OF_PERICENTER":"56.8043","MEAN_MOTION_DDOT":"0.0000000000000","BSTAR":"0.00006954100000","TIME_SYSTEM":"UTC","ECCENTRICITY":"0.00017790","RCS_SIZE":"LARGE","OBJECT_TYPE":"PAYLOAD","PERIAPSIS":"546.000","EPOCH":"2021-12-27T21:09:03.525984","SEMIMAJOR_AXIS":"6925.367","MEAN_ANOMALY":"303.3117","NORAD_CAT_ID":"45081","TLE_LINE2":"2 45081  53.0562 307.6755 0001779  56.8043 303.3117 15.06393835105719","MEAN_MOTION_DOT":"0.00000754","SITE":"AFETR","ELEMENT_SET_NO":"999","CLASSIFICATION_TYPE":"U","PERIOD":"95.593","GP_ID":"192602234","LAUNCH_DATE":"2020-01-29","FILE":"3253114","REF_FRAME":"TEME","DECAY_DATE":null,"MEAN_ELEMENT_THEORY":"SGP4"},{"ARG_OF_PERICENTER":"58.0011","MEAN_MOTION_DDOT":"0.0000000000000","BSTAR":"0.00043748000000","TIME_SYSTEM":"UTC","ECCENTRICITY":"0.00019400","RCS_SIZE":"LARGE","PERIAPSIS":"545.841","OBJECT_TYPE":"PAYLOAD","EPOCH":"2021-12-27T20:53:07.976544","MEAN_ANOMALY":"302.1166","SEMIMAJOR_AXIS":"6925.319","NORAD_CAT_ID":"45082","APOAPSIS":"548.528","EPHEMERIS_TYPE":"0","INCLINATION":"53.0526","CENTER_NAME":"EARTH","COUNTRY_CODE":"US","TLE_LINE1":"1 45082U 20006AQ  21361.87023121  .00006242  00000-0  43748-3 0  9997","RA_OF_ASC_NODE":"307.7076","REV_AT_EPOCH":"10570","OBJECT_ID":"2020-006AQ","MEAN_MOTION":"15.06409509","OBJECT_NAME":"STARLINK-1160","FILE":"3253114","REF_FRAME":"TEME","MEAN_ELEMENT_THEORY":"SGP4","DECAY_DATE":null,"TLE_LINE2":"2 45082  53.0526 307.7076 0001940  58.0011 302.1166 15.06409509105702","MEAN_MOTION_DOT":"0.00006242","SITE":"AFETR","ELEMENT_SET_NO":"999","CLASSIFICATION_TYPE":"U","PERIOD":"95.592","GP_ID":"192602982","LAUNCH_DATE":"2020-01-29"},{"LAUNCH_DATE":"2020-01-29","GP_ID":"192601238","ELEMENT_SET_NO":"999","SITE":"AFETR","PERIOD":"95.594","CLASSIFICATION_TYPE":"U","TLE_LINE2":"2 45083  53.0547 327.5803 0001713  55.7532 304.3619 15.06372551105437","MEAN_MOTION_DOT":"0.00008320","FILE":"3253114","REF_FRAME":"TEME","DECAY_DATE":null,"MEAN_ELEMENT_THEORY":"SGP4","OBJECT_NAME":"STARLINK-1190","MEAN_MOTION":"15.06372551","OBJECT_ID":"2020-006AR","TLE_LINE1":"1 45083U 20006AR  21361.90157015  .00008320  00000-0  57719-3 0  9994","REV_AT_EPOCH":"10543","RA_OF_ASC_NODE":"327.5803","APOAPSIS":"548.484","EPHEMERIS_TYPE":"0","INCLINATION":"53.0547","COUNTRY_CODE":"US","CENTER_NAME":"EARTH","SEMIMAJOR_AXIS":"6925.433","MEAN_ANOMALY":"304.3619","NORAD_CAT_ID":"45083","PERIAPSIS":"546.111","OBJECT_TYPE":"PAYLOAD","EPOCH":"2021-12-27T21:38:15.660960","BSTAR":"0.00057719000000","TIME_SYSTEM":"UTC","ECCENTRICITY":"0.00017130","RCS_SIZE":"LARGE","ARG_OF_PERICENTER":"55.7532","MEAN_MOTION_DDOT":"0.0000000000000"},{"MEAN_ANOMALY":"306.3561","SEMIMAJOR_AXIS":"6925.377","NORAD_CAT_ID":"45084","EPOCH":"2021-12-27T21:11:43.057536","OBJECT_TYPE":"PAYLOAD","PERIAPSIS":"545.968","ECCENTRICITY":"0.00018390","RCS_SIZE":"LARGE","TIME_SYSTEM":"UTC","BSTAR":"0.00001161500000","ARG_OF_PERICENTER":"53.7598","MEAN_MOTION_DDOT":"0.0000000000000","OBJECT_NAME":"STARLINK-1173","MEAN_MOTION":"15.06390757","OBJECT_ID":"2020-006AS","TLE_LINE1":"1 45084U 20006AS  21361.88313724 -.00000109  00000-0  11615-4 0  9997","RA_OF_ASC_NODE":"287.6565","REV_AT_EPOCH":"10599","INCLINATION":"53.0553","CENTER_NAME":"EARTH","COUNTRY_CODE":"US","APOAPSIS":"548.515","EPHEMERIS_TYPE":"0","REF_FRAME":"TEME","MEAN_ELEMENT_THEORY":"SGP4","DECAY_DATE":null,"FILE":"3253114","LAUNCH_DATE":"2020-01-29","GP_ID":"192601486","CLASSIFICATION_TYPE":"U","PERIOD":"95.593","SITE":"AFETR","ELEMENT_SET_NO":"999","MEAN_MOTION_DOT":"-0.00000109","TLE_LINE2":"2 45084  53.0553 287.6565 0001839  53.7598 306.3561 15.06390757105992"},{"MEAN_MOTION":"15.06403933","OBJECT_ID":"2020-006AT","OBJECT_NAME":"STARLINK-1179","CENTER_NAME":"EARTH","COUNTRY_CODE":"US","INCLINATION":"53.0536","EPHEMERIS_TYPE":"0","APOAPSIS":"548.581","TLE_LINE1":"1 45085U 20006AT  21361.94579636  .00002546  00000-0  18975-3 0  9992","REV_AT_EPOCH":"10600","RA_OF_ASC_NODE":"287.3641","EPOCH":"2021-12-27T22:41:56.805504","OBJECT_TYPE":"PAYLOAD","PERIAPSIS":"545.822","SEMIMAJOR_AXIS":"6925.337","NORAD_CAT_ID":"45085","MEAN_ANOMALY":"303.4851","MEAN_MOTION_DDOT":"0.0000000000000","ARG_OF_PERICENTER":"56.6329","RCS_SIZE":"LARGE","ECCENTRICITY":"0.00019920","TIME_SYSTEM":"UTC","BSTAR":"0.00018975000000","GP_ID":"192602735","LAUNCH_DATE":"2020-01-29","MEAN_MOTION_DOT":"0.00002546","TLE_LINE2":"2 45085  53.0536 287.3641 0001992  56.6329 303.4851 15.06403933106004","PERIOD":"95.592","CLASSIFICATION_TYPE":"U","ELEMENT_SET_NO":"999","SITE":"AFETR","DECAY_DATE":null,"MEAN_ELEMENT_THEORY":"SGP4","REF_FRAME":"TEME","FILE":"3253114"},{"OBJECT_NAME":"STARLINK-1181","OBJECT_ID":"2020-006AU","MEAN_MOTION":"15.07594577","RA_OF_ASC_NODE":"284.6241","TLE_LINE1":"1 45086U 20006AU  21361.94486965  .00007204  00000-0  48622-3 0  9993","REV_AT_EPOCH":"10593","APOAPSIS":"544.686","EPHEMERIS_TYPE":"0","COUNTRY_CODE":"US","CENTER_NAME":"EARTH","INCLINATION":"53.0051","MEAN_ANOMALY":"298.7513","SEMIMAJOR_AXIS":"6921.690","NORAD_CAT_ID":"45086","PERIAPSIS":"542.423","OBJECT_TYPE":"PAYLOAD","EPOCH":"2021-12-27T22:40:36.737760","BSTAR":"0.00048622000000","TIME_SYSTEM":"UTC","RCS_SIZE":"LARGE","ECCENTRICITY":"0.00016350","MEAN_MOTION_DDOT":"0.0000000000000","ARG_OF_PERICENTER":"61.3640","LAUNCH_DATE":"2020-01-29","GP_ID":"192602482","ELEMENT_SET_NO":"999","SITE":"AFETR","PERIOD":"95.516","CLASSIFICATION_TYPE":"U","TLE_LINE2":"2 45086  53.0051 284.6241 0001635  61.3640 298.7513 15.07594577105934","MEAN_MOTION_DOT":"0.00007204","FILE":"3253114","DECAY_DATE":null,"MEAN_ELEMENT_THEORY":"SGP4","REF_FRAME":"TEME"},{"TIME_SYSTEM":"UTC","BSTAR":"0.00026370000000","ECCENTRICITY":"0.00019510","RCS_SIZE":"LARGE","MEAN_MOTION_DDOT":"0.0000000000000","ARG_OF_PERICENTER":"57.4446","SEMIMAJOR_AXIS":"6925.369","NORAD_CAT_ID":"45087","MEAN_ANOMALY":"302.6731","PERIAPSIS":"545.883","OBJECT_TYPE":"PAYLOAD","EPOCH":"2021-12-27T12:47:28.869792","RA_OF_ASC_NODE":"289.2198","TLE_LINE1":"1 45087U 20006AV  21361.53297303  .00003648  00000-0  26370-3 0  9999","REV_AT_EPOCH":"10594","APOAPSIS":"548.585","EPHEMERIS_TYPE":"0","INCLINATION":"53.0543","COUNTRY_CODE":"US","CENTER_NAME":"EARTH","OBJECT_NAME":"STARLINK-1185","MEAN_MOTION":"15.06393291","OBJECT_ID":"2020-006AV","FILE":"3252683","REF_FRAME":"TEME","MEAN_ELEMENT_THEORY":"SGP4","DECAY_DATE":null,"SITE":"AFETR","ELEMENT_SET_NO":"999","PERIOD":"95.593","CLASSIFICATION_TYPE":"U","TLE_LINE2":"2 45087  53.0543 289.2198 0001951  57.4446 302.6731 15.06393291105941","MEAN_MOTION_DOT":"0.00003648","LAUNCH_DATE":"2020-01-29","GP_ID":"192567746"},{"FILE":"3253114","MEAN_ELEMENT_THEORY":"SGP4","DECAY_DATE":null,"REF_FRAME":"TEME","SITE":"AFETR","ELEMENT_SET_NO":"999","CLASSIFICATION_TYPE":"U","PERIOD":"95.592","TLE_LINE2":"2 45088  53.0542 287.6490 0001681  59.3433 300.7721 15.06397763105996","MEAN_MOTION_DOT":"0.00000904","LAUNCH_DATE":"2020-01-29","GP_ID":"192601987","BSTAR":"0.00007958500000","TIME_SYSTEM":"UTC","RCS_SIZE":"LARGE","ECCENTRICITY":"0.00016810","ARG_OF_PERICENTER":"59.3433","MEAN_MOTION_DDOT":"0.0000000000000","MEAN_ANOMALY":"300.7721","SEMIMAJOR_AXIS":"6925.355","NORAD_CAT_ID":"45088","OBJECT_TYPE":"PAYLOAD","PERIAPSIS":"546.056","EPOCH":"2021-12-27T21:17:01.119264","TLE_LINE1":"1 45088U 20006AW  21361.88681851  .00000904  00000-0  79585-4 0  9992","REV_AT_EPOCH":"10599","RA_OF_ASC_NODE":"287.6490","APOAPSIS":"548.385","EPHEMERIS_TYPE":"0","COUNTRY_CODE":"US","CENTER_NAME":"EARTH","INCLINATION":"53.0542","OBJECT_NAME":"STARLINK-1183","MEAN_MOTION":"15.06397763","OBJECT_ID":"2020-006AW"},{"LAUNCH_DATE":"2020-01-29","GP_ID":"192602235","SITE":"AFETR","ELEMENT_SET_NO":"999","CLASSIFICATION_TYPE":"U","PERIOD":"95.593","TLE_LINE2":"2 45089  53.0552 287.9030 0002046  58.2620 301.8568 15.06392273105995","MEAN_MOTION_DOT":"-0.00000692","FILE":"3253114","REF_FRAME":"TEME","DECAY_DATE":null,"MEAN_ELEMENT_THEORY":"SGP4","OBJECT_NAME":"STARLINK-1136","OBJECT_ID":"2020-006AX","MEAN_MOTION":"15.06392273","REV_AT_EPOCH":"10599","TLE_LINE1":"1 45089U 20006AX  21361.81953085 -.00000692  00000-0 -27583-4 0  9994","RA_OF_ASC_NODE":"287.9030","EPHEMERIS_TYPE":"0","APOAPSIS":"548.654","INCLINATION":"53.0552","CENTER_NAME":"EARTH","COUNTRY_CODE":"US","NORAD_CAT_ID":"45089","SEMIMAJOR_AXIS":"6925.372","MEAN_ANOMALY":"301.8568","PERIAPSIS":"545.820","OBJECT_TYPE":"PAYLOAD","EPOCH":"2021-12-27T19:40:07.465440","TIME_SYSTEM":"UTC","BSTAR":"-0.00002758300000","ECCENTRICITY":"0.00020460","RCS_SIZE":"LARGE","MEAN_MOTION_DDOT":"0.0000000000000","ARG_OF_PERICENTER":"58.2620"}];
